{
"type": "FeatureCollection",
"name": "plot_40_vsd",
"crs": { "type": "name", "properties": { "name": "urn:ogc:def:crs:OGC:1.3:CRS84" } },
"features": [
{ "type": "Feature", "properties": { "id": "ID_00373", "Name": "แปลง 40-VSD เนื้อที่ 289.11 ไร่ จังหวัด พังงา", "description": "<html xmlns:fo=\"http://www.w3.org/1999/XSL/Format\" xmlns:msxsl=\"urn:schemas-microsoft-com:xslt\">\n\n<head>\n\n<META http-equiv=\"Content-Type\" content=\"text/html\">\n\n<meta http-equiv=\"content-type\" content=\"text/html; charset=UTF-8\">\n\n</head>\n\n<body style=\"margin:0px 0px 0px 0px;overflow:auto;background:#FFFFFF;\">\n\n<table style=\"font-family:Arial,Verdana,Times;font-size:12px;text-align:left;width:100%;border-collapse:collapse;padding:3px 3px 3px 3px\">\n\n<tr style=\"text-align:center;font-weight:bold;background:#9CBCE2\">\n\n<td>แปลง 40-VSD เนื้อที่ 289.11 ไร่ จังหวัด พังงา</td>\n\n</tr>\n\n<tr>\n\n<td>\n\n<table style=\"font-family:Arial,Verdana,Times;font-size:12px;text-align:left;width:100%;border-spacing:0px; padding:3px 3px 3px 3px\">\n\n<tr>\n\n<td>FID</td>\n\n<td>373</td>\n\n</tr>\n\n<tr bgcolor=\"#D4E4F3\">\n\n<td>Name</td>\n\n<td>แปลง 40-VSD เนื้อที่ 289.11 ไร่ จังหวัด พังงา</td>\n\n</tr>\n\n<tr>\n\n<td>Code_Name</td>\n\n<td>40-VSD</td>\n\n</tr>\n\n<tr bgcolor=\"#D4E4F3\">\n\n<td>Moo</td>\n\n<td>3</td>\n\n</tr>\n\n<tr>\n\n<td>Mooban</td>\n\n<td>เกาะไม้ไผ่</td>\n\n</tr>\n\n<tr bgcolor=\"#D4E4F3\">\n\n<td>Tambon</td>\n\n<td>เกาะปันหยี</td>\n\n</tr>\n\n<tr>\n\n<td>Amphor</td>\n\n<td>เมือง</td>\n\n</tr>\n\n<tr bgcolor=\"#D4E4F3\">\n\n<td>Province</td>\n\n<td>พังงา</td>\n\n</tr>\n\n<tr>\n\n<td>Type</td>\n\n<td>แปลงปลูกเสริมและปรับปรุงสภาพป่าชายเลน</td>\n\n</tr>\n\n<tr bgcolor=\"#D4E4F3\">\n\n<td>Route</td>\n\n<td><a target=\"_blank\" href=\"https://goo.gl/maps/QL7pSZMnJdCVMQw16\">https://goo.gl/maps/QL7pSZMnJdCVMQw16</a></td>\n\n</tr>\n\n<tr>\n\n<td>Company</td>\n\n<td>วิสุทธิ</td>\n\n</tr>\n\n<tr bgcolor=\"#D4E4F3\">\n\n<td>Area</td>\n\n<td>462923.918</td>\n\n</tr>\n\n<tr>\n\n<td>Data</td>\n\n<td>ยืนยันกรม</td>\n\n</tr>\n\n<tr bgcolor=\"#D4E4F3\">\n\n<td>rai</td>\n\n<td>289.11</td>\n\n</tr>\n\n<tr>\n\n<td>rai_qgis</td>\n\n<td>289.33</td>\n\n</tr>\n\n<tr bgcolor=\"#D4E4F3\">\n\n<td>rai_arcgis</td>\n\n<td>0</td>\n\n</tr>\n\n</table>\n\n</td>\n\n</tr>\n\n</table>\n\n</body>\n\n</html>", "timestamp": null, "begin": null, "end": null, "altitudeMode": null, "tessellate": -1, "extrude": 0, "visibility": -1, "drawOrder": null, "icon": null, "snippet": "", "plot_id": "40-vsd", "label": "แปลง 40-VSD (289.11 ไร่)", "area_rai": 289.11, "pdd_rai": 277.33, "province": "พังงา", "subdistrict": "เกาะปันหยี", "district": "เมือง", "village": "เกาะไม้ไผ่", "land_type": "แปลงปลูกเสริมและปรับปรุงสภาพป่าชายเลน" }, "geometry": { "type": "MultiPolygon", "coordinates": [ [ [ [ 98.549871406040623, 8.350565351210035 ], [ 98.550213669125597, 8.353062195663824 ], [ 98.549839257076087, 8.354843660006965 ], [ 98.547156360877409, 8.357997348598815 ], [ 98.543430844657777, 8.359521693171644 ], [ 98.544078693776768, 8.356935536146125 ], [ 98.544834073933444, 8.35559772805277 ], [ 98.546517859311791, 8.352506228479683 ], [ 98.548254986178733, 8.350391654351428 ], [ 98.549871406040623, 8.350565351210035 ] ] ], [ [ [ 98.552550499006372, 8.350685973678765 ], [ 98.552149256582979, 8.352114651070339 ], [ 98.550703578407479, 8.35352405329246 ], [ 98.550733152612963, 8.351488933367648 ], [ 98.551951315800636, 8.350477258119042 ], [ 98.552550499006372, 8.350685973678765 ] ] ], [ [ [ 98.552302000137274, 8.345593282903735 ], [ 98.551345787877892, 8.347871575013242 ], [ 98.549819213885655, 8.348557273899132 ], [ 98.5501569380923, 8.347083301253406 ], [ 98.55071228654289, 8.345908063606316 ], [ 98.551621922014135, 8.344651820425213 ], [ 98.552302000137274, 8.345593282903735 ] ] ] ] } }
]
}
