{
"type": "FeatureCollection",
"name": "plot_41_vsd",
"crs": { "type": "name", "properties": { "name": "urn:ogc:def:crs:OGC:1.3:CRS84" } },
"features": [
{ "type": "Feature", "properties": { "id": "ID_00374", "Name": "แปลง 41-VSD เนื้อที่ 181.5 ไร่ จังหวัด พังงา", "description": "<html xmlns:fo=\"http://www.w3.org/1999/XSL/Format\" xmlns:msxsl=\"urn:schemas-microsoft-com:xslt\">\n\n<head>\n\n<META http-equiv=\"Content-Type\" content=\"text/html\">\n\n<meta http-equiv=\"content-type\" content=\"text/html; charset=UTF-8\">\n\n</head>\n\n<body style=\"margin:0px 0px 0px 0px;overflow:auto;background:#FFFFFF;\">\n\n<table style=\"font-family:Arial,Verdana,Times;font-size:12px;text-align:left;width:100%;border-collapse:collapse;padding:3px 3px 3px 3px\">\n\n<tr style=\"text-align:center;font-weight:bold;background:#9CBCE2\">\n\n<td>แปลง 41-VSD เนื้อที่ 181.5 ไร่ จังหวัด พังงา</td>\n\n</tr>\n\n<tr>\n\n<td>\n\n<table style=\"font-family:Arial,Verdana,Times;font-size:12px;text-align:left;width:100%;border-spacing:0px; padding:3px 3px 3px 3px\">\n\n<tr>\n\n<td>FID</td>\n\n<td>374</td>\n\n</tr>\n\n<tr bgcolor=\"#D4E4F3\">\n\n<td>Name</td>\n\n<td>แปลง 41-VSD เนื้อที่ 181.5 ไร่ จังหวัด พังงา</td>\n\n</tr>\n\n<tr>\n\n<td>Code_Name</td>\n\n<td>41-VSD</td>\n\n</tr>\n\n<tr bgcolor=\"#D4E4F3\">\n\n<td>Moo</td>\n\n<td>3</td>\n\n</tr>\n\n<tr>\n\n<td>Mooban</td>\n\n<td>เกาะไม้ไผ่</td>\n\n</tr>\n\n<tr bgcolor=\"#D4E4F3\">\n\n<td>Tambon</td>\n\n<td>เกาะปันหยี</td>\n\n</tr>\n\n<tr>\n\n<td>Amphor</td>\n\n<td>เมือง</td>\n\n</tr>\n\n<tr bgcolor=\"#D4E4F3\">\n\n<td>Province</td>\n\n<td>พังงา</td>\n\n</tr>\n\n<tr>\n\n<td>Type</td>\n\n<td>แปลงปลูกเสริมและปรับปรุงสภาพป่าชายเลน</td>\n\n</tr>\n\n<tr bgcolor=\"#D4E4F3\">\n\n<td>Route</td>\n\n<td><a target=\"_blank\" href=\"https://goo.gl/maps/ysbfMNSmngNvaFUp7\">https://goo.gl/maps/ysbfMNSmngNvaFUp7</a></td>\n\n</tr>\n\n<tr>\n\n<td>Company</td>\n\n<td>วิสุทธิ</td>\n\n</tr>\n\n<tr bgcolor=\"#D4E4F3\">\n\n<td>Area</td>\n\n<td>290610.25</td>\n\n</tr>\n\n<tr>\n\n<td>Data</td>\n\n<td>ยืนยันกรม</td>\n\n</tr>\n\n<tr bgcolor=\"#D4E4F3\">\n\n<td>rai</td>\n\n<td>181.5</td>\n\n</tr>\n\n<tr>\n\n<td>rai_qgis</td>\n\n<td>181.63</td>\n\n</tr>\n\n<tr bgcolor=\"#D4E4F3\">\n\n<td>rai_arcgis</td>\n\n<td>0</td>\n\n</tr>\n\n</table>\n\n</td>\n\n</tr>\n\n</table>\n\n</body>\n\n</html>", "timestamp": null, "begin": null, "end": null, "altitudeMode": null, "tessellate": -1, "extrude": 0, "visibility": -1, "drawOrder": null, "icon": null, "snippet": "", "plot_id": "41-vsd", "label": "แปลง 41-VSD (181.50 ไร่)", "area_rai": 181.5, "pdd_rai": 178.92, "province": "พังงา", "subdistrict": "เกาะปันหยี", "district": "เมือง", "village": "เกาะไม้ไผ่", "land_type": "แปลงปลูกเสริมและปรับปรุงสภาพป่าชายเลน" }, "geometry": { "type": "MultiPolygon", "coordinates": [ [ [ [ 98.537728694123999, 8.358203531667698 ], [ 98.539832294724704, 8.36118182548091 ], [ 98.53877721010025, 8.362483092320929 ], [ 98.538251220017841, 8.361813140564037 ], [ 98.536999369125624, 8.360527272815432 ], [ 98.535283674901734, 8.359792607642762 ], [ 98.534539664873705, 8.359167621088886 ], [ 98.534431664389842, 8.358335343501324 ], [ 98.53470555921426, 8.357132666639302 ], [ 98.535443918801903, 8.354854166786426 ], [ 98.536453174874168, 8.353896567772438 ], [ 98.537099256825286, 8.352839045985206 ], [ 98.538052926701255, 8.352803978720713 ], [ 98.537728694123999, 8.358203531667698 ] ] ] ] } }
]
}
