{
"type": "FeatureCollection",
"name": "coastal_transects",
"crs": { "type": "name", "properties": { "name": "urn:ogc:def:crs:OGC:1.3:CRS84" } },
"features": [
{ "type": "Feature", "properties": { "id": "T_020", "y_utm": 951275.0, "waterline_nsm_m": 280.0, "waterline_epr_m_yr": 93.33, "waterline_class": "APPARENT_SEAWARD_ACCRETION", "mangrove_nsm_m": 610.0, "mangrove_epr_m_yr": 203.33, "mangrove_class": "MANGROVE_EDGE_ADVANCE_PROXY" }, "geometry": { "type": "LineString", "coordinates": [ [ 99.993810595466542, 8.604552776976536 ], [ 100.0134384387149, 8.604501576580212 ] ] } },
{ "type": "Feature", "properties": { "id": "T_025", "y_utm": 951225.0, "waterline_nsm_m": 210.0, "waterline_epr_m_yr": 70.0, "waterline_class": "APPARENT_SEAWARD_ACCRETION", "mangrove_nsm_m": 670.0, "mangrove_epr_m_yr": 223.33, "mangrove_class": "MANGROVE_EDGE_ADVANCE_PROXY" }, "geometry": { "type": "LineString", "coordinates": [ [ 99.993809416298518, 8.604100581432691 ], [ 100.013437236267819, 8.604049383766382 ] ] } },
{ "type": "Feature", "properties": { "id": "T_030", "y_utm": 951175.0, "waterline_nsm_m": 230.0, "waterline_epr_m_yr": 76.67, "waterline_class": "APPARENT_SEAWARD_ACCRETION", "mangrove_nsm_m": 700.0, "mangrove_epr_m_yr": 233.33, "mangrove_class": "MANGROVE_EDGE_ADVANCE_PROXY" }, "geometry": { "type": "LineString", "coordinates": [ [ 99.993808237194784, 8.603648385878078 ], [ 100.013436033886322, 8.603597190941786 ] ] } },
{ "type": "Feature", "properties": { "id": "T_035", "y_utm": 951125.0, "waterline_nsm_m": 240.0, "waterline_epr_m_yr": 80.0, "waterline_class": "APPARENT_SEAWARD_ACCRETION", "mangrove_nsm_m": 770.0, "mangrove_epr_m_yr": 256.67, "mangrove_class": "MANGROVE_EDGE_ADVANCE_PROXY" }, "geometry": { "type": "LineString", "coordinates": [ [ 99.993807058155355, 8.603196190312703 ], [ 100.013434831570379, 8.603144998106419 ] ] } },
{ "type": "Feature", "properties": { "id": "T_040", "y_utm": 951075.0, "waterline_nsm_m": 240.0, "waterline_epr_m_yr": 80.0, "waterline_class": "APPARENT_SEAWARD_ACCRETION", "mangrove_nsm_m": 820.0, "mangrove_epr_m_yr": 273.33, "mangrove_class": "MANGROVE_EDGE_ADVANCE_PROXY" }, "geometry": { "type": "LineString", "coordinates": [ [ 99.993805879180229, 8.602743994736562 ], [ 100.013433629320019, 8.602692805260279 ] ] } },
{ "type": "Feature", "properties": { "id": "T_045", "y_utm": 951025.0, "waterline_nsm_m": 230.0, "waterline_epr_m_yr": 76.67, "waterline_class": "APPARENT_SEAWARD_ACCRETION", "mangrove_nsm_m": 800.0, "mangrove_epr_m_yr": 266.67, "mangrove_class": "MANGROVE_EDGE_ADVANCE_PROXY" }, "geometry": { "type": "LineString", "coordinates": [ [ 99.993804700269393, 8.602291799149665 ], [ 100.013432427135214, 8.602240612403374 ] ] } },
{ "type": "Feature", "properties": { "id": "T_050", "y_utm": 950975.0, "waterline_nsm_m": 260.0, "waterline_epr_m_yr": 86.67, "waterline_class": "APPARENT_SEAWARD_ACCRETION", "mangrove_nsm_m": 830.0, "mangrove_epr_m_yr": 276.67, "mangrove_class": "MANGROVE_EDGE_ADVANCE_PROXY" }, "geometry": { "type": "LineString", "coordinates": [ [ 99.993803521422876, 8.601839603552001 ], [ 100.013431225015992, 8.601788419535698 ] ] } },
{ "type": "Feature", "properties": { "id": "T_055", "y_utm": 950925.0, "waterline_nsm_m": 270.0, "waterline_epr_m_yr": 90.0, "waterline_class": "APPARENT_SEAWARD_ACCRETION", "mangrove_nsm_m": 940.0, "mangrove_epr_m_yr": 313.33, "mangrove_class": "MANGROVE_EDGE_ADVANCE_PROXY" }, "geometry": { "type": "LineString", "coordinates": [ [ 99.993802342640649, 8.601387407943575 ], [ 100.013430022962339, 8.601336226657256 ] ] } },
{ "type": "Feature", "properties": { "id": "T_060", "y_utm": 950875.0, "waterline_nsm_m": 170.0, "waterline_epr_m_yr": 56.67, "waterline_class": "APPARENT_SEAWARD_ACCRETION", "mangrove_nsm_m": 910.0, "mangrove_epr_m_yr": 303.33, "mangrove_class": "MANGROVE_EDGE_ADVANCE_PROXY" }, "geometry": { "type": "LineString", "coordinates": [ [ 99.993801163922726, 8.600935212324391 ], [ 100.013428820974241, 8.600884033768049 ] ] } },
{ "type": "Feature", "properties": { "id": "T_065", "y_utm": 950825.0, "waterline_nsm_m": 190.0, "waterline_epr_m_yr": 63.33, "waterline_class": "APPARENT_SEAWARD_ACCRETION", "mangrove_nsm_m": 1060.0, "mangrove_epr_m_yr": 353.33, "mangrove_class": "MANGROVE_EDGE_ADVANCE_PROXY" }, "geometry": { "type": "LineString", "coordinates": [ [ 99.993799985269092, 8.600483016694445 ], [ 100.013427619051726, 8.600431840868074 ] ] } },
{ "type": "Feature", "properties": { "id": "T_070", "y_utm": 950775.0, "waterline_nsm_m": 110.0, "waterline_epr_m_yr": 36.67, "waterline_class": "APPARENT_SEAWARD_ACCRETION", "mangrove_nsm_m": 980.0, "mangrove_epr_m_yr": 326.67, "mangrove_class": "MANGROVE_EDGE_ADVANCE_PROXY" }, "geometry": { "type": "LineString", "coordinates": [ [ 99.993798806679763, 8.600030821053741 ], [ 100.013426417194779, 8.599979647957332 ] ] } },
{ "type": "Feature", "properties": { "id": "T_075", "y_utm": 950725.0, "waterline_nsm_m": 50.0, "waterline_epr_m_yr": 16.67, "waterline_class": "APPARENT_SEAWARD_ACCRETION", "mangrove_nsm_m": 1030.0, "mangrove_epr_m_yr": 343.33, "mangrove_class": "MANGROVE_EDGE_ADVANCE_PROXY" }, "geometry": { "type": "LineString", "coordinates": [ [ 99.993797628154724, 8.599578625402279 ], [ 100.013425215403387, 8.599527455035826 ] ] } },
{ "type": "Feature", "properties": { "id": "T_080", "y_utm": 950675.0, "waterline_nsm_m": 30.0, "waterline_epr_m_yr": 10.0, "waterline_class": "APPARENT_SEAWARD_ACCRETION", "mangrove_nsm_m": 1130.0, "mangrove_epr_m_yr": 376.67, "mangrove_class": "MANGROVE_EDGE_ADVANCE_PROXY" }, "geometry": { "type": "LineString", "coordinates": [ [ 99.993796449694003, 8.599126429740055 ], [ 100.013424013677579, 8.599075262103554 ] ] } },
{ "type": "Feature", "properties": { "id": "T_085", "y_utm": 950625.0, "waterline_nsm_m": 30.0, "waterline_epr_m_yr": 10.0, "waterline_class": "APPARENT_SEAWARD_ACCRETION", "mangrove_nsm_m": 1140.0, "mangrove_epr_m_yr": 380.0, "mangrove_class": "MANGROVE_EDGE_ADVANCE_PROXY" }, "geometry": { "type": "LineString", "coordinates": [ [ 99.993795271297572, 8.598674234067072 ], [ 100.013422812017325, 8.598623069160519 ] ] } },
{ "type": "Feature", "properties": { "id": "T_090", "y_utm": 950575.0, "waterline_nsm_m": 80.0, "waterline_epr_m_yr": 26.67, "waterline_class": "APPARENT_SEAWARD_ACCRETION", "mangrove_nsm_m": 1000.0, "mangrove_epr_m_yr": 333.33, "mangrove_class": "MANGROVE_EDGE_ADVANCE_PROXY" }, "geometry": { "type": "LineString", "coordinates": [ [ 99.99379409296543, 8.598222038383334 ], [ 100.01342161042264, 8.598170876206716 ] ] } },
{ "type": "Feature", "properties": { "id": "T_095", "y_utm": 950525.0, "waterline_nsm_m": 60.0, "waterline_epr_m_yr": 20.0, "waterline_class": "APPARENT_SEAWARD_ACCRETION", "mangrove_nsm_m": 920.0, "mangrove_epr_m_yr": 306.67, "mangrove_class": "MANGROVE_EDGE_ADVANCE_PROXY" }, "geometry": { "type": "LineString", "coordinates": [ [ 99.993792914697593, 8.597769842688839 ], [ 100.013420408893523, 8.597718683242155 ] ] } },
{ "type": "Feature", "properties": { "id": "T_100", "y_utm": 950475.0, "waterline_nsm_m": 80.0, "waterline_epr_m_yr": 26.67, "waterline_class": "APPARENT_SEAWARD_ACCRETION", "mangrove_nsm_m": 1000.0, "mangrove_epr_m_yr": 333.33, "mangrove_class": "MANGROVE_EDGE_ADVANCE_PROXY" }, "geometry": { "type": "LineString", "coordinates": [ [ 99.993791736494046, 8.597317646983583 ], [ 100.013419207429976, 8.597266490266827 ] ] } },
{ "type": "Feature", "properties": { "id": "T_105", "y_utm": 950425.0, "waterline_nsm_m": 70.0, "waterline_epr_m_yr": 23.33, "waterline_class": "APPARENT_SEAWARD_ACCRETION", "mangrove_nsm_m": 890.0, "mangrove_epr_m_yr": 296.67, "mangrove_class": "MANGROVE_EDGE_ADVANCE_PROXY" }, "geometry": { "type": "LineString", "coordinates": [ [ 99.993790558354803, 8.596865451267577 ], [ 100.013418006031984, 8.596814297280742 ] ] } },
{ "type": "Feature", "properties": { "id": "T_110", "y_utm": 950375.0, "waterline_nsm_m": 70.0, "waterline_epr_m_yr": 23.33, "waterline_class": "APPARENT_SEAWARD_ACCRETION", "mangrove_nsm_m": 760.0, "mangrove_epr_m_yr": 253.33, "mangrove_class": "MANGROVE_EDGE_ADVANCE_PROXY" }, "geometry": { "type": "LineString", "coordinates": [ [ 99.99378938027985, 8.596413255540812 ], [ 100.01341680469956, 8.596362104283893 ] ] } },
{ "type": "Feature", "properties": { "id": "T_115", "y_utm": 950325.0, "waterline_nsm_m": 70.0, "waterline_epr_m_yr": 23.33, "waterline_class": "APPARENT_SEAWARD_ACCRETION", "mangrove_nsm_m": 590.0, "mangrove_epr_m_yr": 196.67, "mangrove_class": "MANGROVE_EDGE_ADVANCE_PROXY" }, "geometry": { "type": "LineString", "coordinates": [ [ 99.993788202269187, 8.595961059803297 ], [ 100.013415603432719, 8.595909911276282 ] ] } },
{ "type": "Feature", "properties": { "id": "T_120", "y_utm": 950275.0, "waterline_nsm_m": 80.0, "waterline_epr_m_yr": 26.67, "waterline_class": "APPARENT_SEAWARD_ACCRETION", "mangrove_nsm_m": 670.0, "mangrove_epr_m_yr": 223.33, "mangrove_class": "MANGROVE_EDGE_ADVANCE_PROXY" }, "geometry": { "type": "LineString", "coordinates": [ [ 99.993787024322828, 8.595508864055024 ], [ 100.013414402231419, 8.59545771825791 ] ] } },
{ "type": "Feature", "properties": { "id": "T_125", "y_utm": 950225.0, "waterline_nsm_m": 140.0, "waterline_epr_m_yr": 46.67, "waterline_class": "APPARENT_SEAWARD_ACCRETION", "mangrove_nsm_m": 630.0, "mangrove_epr_m_yr": 210.0, "mangrove_class": "MANGROVE_EDGE_ADVANCE_PROXY" }, "geometry": { "type": "LineString", "coordinates": [ [ 99.993785846440758, 8.595056668295996 ], [ 100.013413201095688, 8.595005525228778 ] ] } },
{ "type": "Feature", "properties": { "id": "T_130", "y_utm": 950175.0, "waterline_nsm_m": 160.0, "waterline_epr_m_yr": 53.33, "waterline_class": "APPARENT_SEAWARD_ACCRETION", "mangrove_nsm_m": 540.0, "mangrove_epr_m_yr": 180.0, "mangrove_class": "MANGROVE_EDGE_ADVANCE_PROXY" }, "geometry": { "type": "LineString", "coordinates": [ [ 99.993784668622993, 8.594604472526216 ], [ 100.013412000025525, 8.594553332188887 ] ] } },
{ "type": "Feature", "properties": { "id": "T_135", "y_utm": 950125.0, "waterline_nsm_m": 130.0, "waterline_epr_m_yr": 43.33, "waterline_class": "APPARENT_SEAWARD_ACCRETION", "mangrove_nsm_m": 570.0, "mangrove_epr_m_yr": 190.0, "mangrove_class": "MANGROVE_EDGE_ADVANCE_PROXY" }, "geometry": { "type": "LineString", "coordinates": [ [ 99.993783490869504, 8.594152276745683 ], [ 100.013410799020932, 8.594101139138239 ] ] } },
{ "type": "Feature", "properties": { "id": "T_140", "y_utm": 950075.0, "waterline_nsm_m": 120.0, "waterline_epr_m_yr": 40.0, "waterline_class": "APPARENT_SEAWARD_ACCRETION", "mangrove_nsm_m": 370.0, "mangrove_epr_m_yr": 123.33, "mangrove_class": "MANGROVE_EDGE_ADVANCE_PROXY" }, "geometry": { "type": "LineString", "coordinates": [ [ 99.993782313180319, 8.593700080954402 ], [ 100.013409598081893, 8.593648946076833 ] ] } },
{ "type": "Feature", "properties": { "id": "T_145", "y_utm": 950025.0, "waterline_nsm_m": 150.0, "waterline_epr_m_yr": 50.0, "waterline_class": "APPARENT_SEAWARD_ACCRETION", "mangrove_nsm_m": 380.0, "mangrove_epr_m_yr": 126.67, "mangrove_class": "MANGROVE_EDGE_ADVANCE_PROXY" }, "geometry": { "type": "LineString", "coordinates": [ [ 99.993781135555423, 8.593247885152364 ], [ 100.013408397208408, 8.593196753004667 ] ] } },
{ "type": "Feature", "properties": { "id": "T_150", "y_utm": 949975.0, "waterline_nsm_m": 120.0, "waterline_epr_m_yr": 40.0, "waterline_class": "APPARENT_SEAWARD_ACCRETION", "mangrove_nsm_m": 540.0, "mangrove_epr_m_yr": 180.0, "mangrove_class": "MANGROVE_EDGE_ADVANCE_PROXY" }, "geometry": { "type": "LineString", "coordinates": [ [ 99.993779957994818, 8.592795689339578 ], [ 100.013407196400493, 8.592744559921744 ] ] } },
{ "type": "Feature", "properties": { "id": "T_155", "y_utm": 949925.0, "waterline_nsm_m": 120.0, "waterline_epr_m_yr": 40.0, "waterline_class": "APPARENT_SEAWARD_ACCRETION", "mangrove_nsm_m": 410.0, "mangrove_epr_m_yr": 136.67, "mangrove_class": "MANGROVE_EDGE_ADVANCE_PROXY" }, "geometry": { "type": "LineString", "coordinates": [ [ 99.993778780498516, 8.592343493516042 ], [ 100.013405995658147, 8.592292366828067 ] ] } },
{ "type": "Feature", "properties": { "id": "T_160", "y_utm": 949875.0, "waterline_nsm_m": 100.0, "waterline_epr_m_yr": 33.33, "waterline_class": "APPARENT_SEAWARD_ACCRETION", "mangrove_nsm_m": 430.0, "mangrove_epr_m_yr": 143.33, "mangrove_class": "MANGROVE_EDGE_ADVANCE_PROXY" }, "geometry": { "type": "LineString", "coordinates": [ [ 99.993777603066505, 8.591891297681753 ], [ 100.013404794981341, 8.591840173723631 ] ] } },
{ "type": "Feature", "properties": { "id": "T_165", "y_utm": 949825.0, "waterline_nsm_m": 120.0, "waterline_epr_m_yr": 40.0, "waterline_class": "APPARENT_SEAWARD_ACCRETION", "mangrove_nsm_m": 440.0, "mangrove_epr_m_yr": 146.67, "mangrove_class": "MANGROVE_EDGE_ADVANCE_PROXY" }, "geometry": { "type": "LineString", "coordinates": [ [ 99.993776425698783, 8.591439101836718 ], [ 100.013403594370118, 8.591387980608442 ] ] } },
{ "type": "Feature", "properties": { "id": "T_170", "y_utm": 949775.0, "waterline_nsm_m": 120.0, "waterline_epr_m_yr": 40.0, "waterline_class": "APPARENT_SEAWARD_ACCRETION", "mangrove_nsm_m": 430.0, "mangrove_epr_m_yr": 143.33, "mangrove_class": "MANGROVE_EDGE_ADVANCE_PROXY" }, "geometry": { "type": "LineString", "coordinates": [ [ 99.993775248395352, 8.590986905980932 ], [ 100.01340239382445, 8.590935787482495 ] ] } },
{ "type": "Feature", "properties": { "id": "T_175", "y_utm": 949725.0, "waterline_nsm_m": 80.0, "waterline_epr_m_yr": 26.67, "waterline_class": "APPARENT_SEAWARD_ACCRETION", "mangrove_nsm_m": 480.0, "mangrove_epr_m_yr": 160.0, "mangrove_class": "MANGROVE_EDGE_ADVANCE_PROXY" }, "geometry": { "type": "LineString", "coordinates": [ [ 99.993774071156196, 8.590534710114399 ], [ 100.013401193344336, 8.590483594345795 ] ] } },
{ "type": "Feature", "properties": { "id": "T_180", "y_utm": 949675.0, "waterline_nsm_m": 90.0, "waterline_epr_m_yr": 30.0, "waterline_class": "APPARENT_SEAWARD_ACCRETION", "mangrove_nsm_m": 500.0, "mangrove_epr_m_yr": 166.67, "mangrove_class": "MANGROVE_EDGE_ADVANCE_PROXY" }, "geometry": { "type": "LineString", "coordinates": [ [ 99.993772893981344, 8.590082514237119 ], [ 100.013399992929791, 8.590031401198342 ] ] } },
{ "type": "Feature", "properties": { "id": "T_185", "y_utm": 949625.0, "waterline_nsm_m": 90.0, "waterline_epr_m_yr": 30.0, "waterline_class": "APPARENT_SEAWARD_ACCRETION", "mangrove_nsm_m": 550.0, "mangrove_epr_m_yr": 183.33, "mangrove_class": "MANGROVE_EDGE_ADVANCE_PROXY" }, "geometry": { "type": "LineString", "coordinates": [ [ 99.993771716870796, 8.589630318349091 ], [ 100.013398792580787, 8.589579208040137 ] ] } },
{ "type": "Feature", "properties": { "id": "T_190", "y_utm": 949575.0, "waterline_nsm_m": 100.0, "waterline_epr_m_yr": 33.33, "waterline_class": "APPARENT_SEAWARD_ACCRETION", "mangrove_nsm_m": 580.0, "mangrove_epr_m_yr": 193.33, "mangrove_class": "MANGROVE_EDGE_ADVANCE_PROXY" }, "geometry": { "type": "LineString", "coordinates": [ [ 99.99377053982451, 8.589178122450312 ], [ 100.013397592297366, 8.589127014871172 ] ] } },
{ "type": "Feature", "properties": { "id": "T_195", "y_utm": 949525.0, "waterline_nsm_m": 110.0, "waterline_epr_m_yr": 36.67, "waterline_class": "APPARENT_SEAWARD_ACCRETION", "mangrove_nsm_m": 540.0, "mangrove_epr_m_yr": 180.0, "mangrove_class": "MANGROVE_EDGE_ADVANCE_PROXY" }, "geometry": { "type": "LineString", "coordinates": [ [ 99.993769362842528, 8.588725926540794 ], [ 100.013396392079486, 8.588674821691463 ] ] } },
{ "type": "Feature", "properties": { "id": "T_200", "y_utm": 949475.0, "waterline_nsm_m": 120.0, "waterline_epr_m_yr": 40.0, "waterline_class": "APPARENT_SEAWARD_ACCRETION", "mangrove_nsm_m": 550.0, "mangrove_epr_m_yr": 183.33, "mangrove_class": "MANGROVE_EDGE_ADVANCE_PROXY" }, "geometry": { "type": "LineString", "coordinates": [ [ 99.993768185924836, 8.588273730620529 ], [ 100.013395191927174, 8.588222628501002 ] ] } },
{ "type": "Feature", "properties": { "id": "T_205", "y_utm": 949425.0, "waterline_nsm_m": 160.0, "waterline_epr_m_yr": 53.33, "waterline_class": "APPARENT_SEAWARD_ACCRETION", "mangrove_nsm_m": 270.0, "mangrove_epr_m_yr": 90.0, "mangrove_class": "MANGROVE_EDGE_ADVANCE_PROXY" }, "geometry": { "type": "LineString", "coordinates": [ [ 99.993767009071433, 8.587821534689517 ], [ 100.013393991840417, 8.587770435299785 ] ] } },
{ "type": "Feature", "properties": { "id": "T_210", "y_utm": 949375.0, "waterline_nsm_m": 120.0, "waterline_epr_m_yr": 40.0, "waterline_class": "APPARENT_SEAWARD_ACCRETION", "mangrove_nsm_m": 480.0, "mangrove_epr_m_yr": 160.0, "mangrove_class": "MANGROVE_EDGE_ADVANCE_PROXY" }, "geometry": { "type": "LineString", "coordinates": [ [ 99.993765832282321, 8.587369338747761 ], [ 100.013392791819214, 8.58731824208782 ] ] } },
{ "type": "Feature", "properties": { "id": "T_215", "y_utm": 949325.0, "waterline_nsm_m": 90.0, "waterline_epr_m_yr": 30.0, "waterline_class": "APPARENT_SEAWARD_ACCRETION", "mangrove_nsm_m": 240.0, "mangrove_epr_m_yr": 80.0, "mangrove_class": "MANGROVE_EDGE_ADVANCE_PROXY" }, "geometry": { "type": "LineString", "coordinates": [ [ 99.993764655557499, 8.586917142795262 ], [ 100.013391591863567, 8.586866048865103 ] ] } },
{ "type": "Feature", "properties": { "id": "T_220", "y_utm": 949275.0, "waterline_nsm_m": 50.0, "waterline_epr_m_yr": 16.67, "waterline_class": "APPARENT_SEAWARD_ACCRETION", "mangrove_nsm_m": 250.0, "mangrove_epr_m_yr": 83.33, "mangrove_class": "MANGROVE_EDGE_ADVANCE_PROXY" }, "geometry": { "type": "LineString", "coordinates": [ [ 99.993763478896952, 8.586464946832018 ], [ 100.013390391973488, 8.586413855631639 ] ] } },
{ "type": "Feature", "properties": { "id": "T_225", "y_utm": 949225.0, "waterline_nsm_m": 20.0, "waterline_epr_m_yr": 6.67, "waterline_class": "APPARENT_SEAWARD_ACCRETION", "mangrove_nsm_m": 260.0, "mangrove_epr_m_yr": 86.67, "mangrove_class": "MANGROVE_EDGE_ADVANCE_PROXY" }, "geometry": { "type": "LineString", "coordinates": [ [ 99.993762302300695, 8.586012750858034 ], [ 100.013389192148949, 8.585961662387422 ] ] } },
{ "type": "Feature", "properties": { "id": "T_230", "y_utm": 949175.0, "waterline_nsm_m": 0.0, "waterline_epr_m_yr": 0.0, "waterline_class": "WITHIN_UNCERTAINTY", "mangrove_nsm_m": 160.0, "mangrove_epr_m_yr": 53.33, "mangrove_class": "MANGROVE_EDGE_ADVANCE_PROXY" }, "geometry": { "type": "LineString", "coordinates": [ [ 99.993761125768728, 8.585560554873306 ], [ 100.01338799238998, 8.585509469132463 ] ] } },
{ "type": "Feature", "properties": { "id": "T_235", "y_utm": 949125.0, "waterline_nsm_m": 0.0, "waterline_epr_m_yr": 0.0, "waterline_class": "WITHIN_UNCERTAINTY", "mangrove_nsm_m": 140.0, "mangrove_epr_m_yr": 46.67, "mangrove_class": "MANGROVE_EDGE_ADVANCE_PROXY" }, "geometry": { "type": "LineString", "coordinates": [ [ 99.993759949301051, 8.585108358877836 ], [ 100.013386792696551, 8.585057275866751 ] ] } }
]
}
