{
  "type": "FeatureCollection",
  "features": [
    {
      "type": "Feature",
      "geometry": {
        "type": "LineString",
        "coordinates": [
          [
            98.52547476936682,
            8.367297438118266
          ],
          [
            98.55671856579565,
            8.367333704021394
          ]
        ]
      },
      "properties": {
        "id": "T_040",
        "row": 40,
        "nsm_water_m": 0.0,
        "epr_water_m_yr": 0.0,
        "mangrove_advance_m": 0.0,
        "classification": "Stable"
      }
    },
    {
      "type": "Feature",
      "geometry": {
        "type": "LineString",
        "coordinates": [
          [
            98.52547531666855,
            8.366845184225298
          ],
          [
            98.5567190770648,
            8.366881448141203
          ]
        ]
      },
      "properties": {
        "id": "T_045",
        "row": 45,
        "nsm_water_m": 0.0,
        "epr_water_m_yr": 0.0,
        "mangrove_advance_m": 0.0,
        "classification": "Stable"
      }
    },
    {
      "type": "Feature",
      "geometry": {
        "type": "LineString",
        "coordinates": [
          [
            98.52547586393963,
            8.366392930321972
          ],
          [
            98.55671958830531,
            8.366429192250662
          ]
        ]
      },
      "properties": {
        "id": "T_050",
        "row": 50,
        "nsm_water_m": 0.0,
        "epr_water_m_yr": 0.0,
        "mangrove_advance_m": -10.0,
        "classification": "Stable"
      }
    },
    {
      "type": "Feature",
      "geometry": {
        "type": "LineString",
        "coordinates": [
          [
            98.52547641118008,
            8.36594067640829
          ],
          [
            98.55672009951721,
            8.365976936349766
          ]
        ]
      },
      "properties": {
        "id": "T_055",
        "row": 55,
        "nsm_water_m": 0.0,
        "epr_water_m_yr": 0.0,
        "mangrove_advance_m": 0.0,
        "classification": "Stable"
      }
    },
    {
      "type": "Feature",
      "geometry": {
        "type": "LineString",
        "coordinates": [
          [
            98.52547695838989,
            8.36548842248425
          ],
          [
            98.5567206107005,
            8.365524680438517
          ]
        ]
      },
      "properties": {
        "id": "T_060",
        "row": 60,
        "nsm_water_m": 0.0,
        "epr_water_m_yr": 0.0,
        "mangrove_advance_m": 0.0,
        "classification": "Stable"
      }
    },
    {
      "type": "Feature",
      "geometry": {
        "type": "LineString",
        "coordinates": [
          [
            98.52547750556909,
            8.365036168549853
          ],
          [
            98.55672112185516,
            8.365072424516919
          ]
        ]
      },
      "properties": {
        "id": "T_065",
        "row": 65,
        "nsm_water_m": 0.0,
        "epr_water_m_yr": 0.0,
        "mangrove_advance_m": 0.0,
        "classification": "Stable"
      }
    },
    {
      "type": "Feature",
      "geometry": {
        "type": "LineString",
        "coordinates": [
          [
            98.52547805271763,
            8.364583914605104
          ],
          [
            98.55672163298121,
            8.364620168584967
          ]
        ]
      },
      "properties": {
        "id": "T_070",
        "row": 70,
        "nsm_water_m": 0.0,
        "epr_water_m_yr": 0.0,
        "mangrove_advance_m": 0.0,
        "classification": "Stable"
      }
    },
    {
      "type": "Feature",
      "geometry": {
        "type": "LineString",
        "coordinates": [
          [
            98.52547859983555,
            8.364131660649997
          ],
          [
            98.55672214407865,
            8.364167912642666
          ]
        ]
      },
      "properties": {
        "id": "T_075",
        "row": 75,
        "nsm_water_m": 0.0,
        "epr_water_m_yr": 0.0,
        "mangrove_advance_m": 0.0,
        "classification": "Stable"
      }
    },
    {
      "type": "Feature",
      "geometry": {
        "type": "LineString",
        "coordinates": [
          [
            98.52547914692283,
            8.363679406684534
          ],
          [
            98.55672265514747,
            8.36371565669001
          ]
        ]
      },
      "properties": {
        "id": "T_080",
        "row": 80,
        "nsm_water_m": 0.0,
        "epr_water_m_yr": 0.0,
        "mangrove_advance_m": 0.0,
        "classification": "Stable"
      }
    },
    {
      "type": "Feature",
      "geometry": {
        "type": "LineString",
        "coordinates": [
          [
            98.52547969397948,
            8.363227152708715
          ],
          [
            98.55672316618767,
            8.363263400727007
          ]
        ]
      },
      "properties": {
        "id": "T_085",
        "row": 85,
        "nsm_water_m": 0.0,
        "epr_water_m_yr": 0.0,
        "mangrove_advance_m": 0.0,
        "classification": "Stable"
      }
    },
    {
      "type": "Feature",
      "geometry": {
        "type": "LineString",
        "coordinates": [
          [
            98.52548024100551,
            8.362774898722547
          ],
          [
            98.55672367719924,
            8.362811144753657
          ]
        ]
      },
      "properties": {
        "id": "T_090",
        "row": 90,
        "nsm_water_m": 0.0,
        "epr_water_m_yr": 0.0,
        "mangrove_advance_m": 0.0,
        "classification": "Stable"
      }
    },
    {
      "type": "Feature",
      "geometry": {
        "type": "LineString",
        "coordinates": [
          [
            98.52548078800089,
            8.362322644726023
          ],
          [
            98.55672418818222,
            8.362358888769952
          ]
        ]
      },
      "properties": {
        "id": "T_095",
        "row": 95,
        "nsm_water_m": 0.0,
        "epr_water_m_yr": 0.0,
        "mangrove_advance_m": 0.0,
        "classification": "Stable"
      }
    },
    {
      "type": "Feature",
      "geometry": {
        "type": "LineString",
        "coordinates": [
          [
            98.52548133496563,
            8.36187039071915
          ],
          [
            98.55672469913657,
            8.361906632775906
          ]
        ]
      },
      "properties": {
        "id": "T_100",
        "row": 100,
        "nsm_water_m": 0.0,
        "epr_water_m_yr": 0.0,
        "mangrove_advance_m": 0.0,
        "classification": "Stable"
      }
    },
    {
      "type": "Feature",
      "geometry": {
        "type": "LineString",
        "coordinates": [
          [
            98.52548188189976,
            8.361418136701923
          ],
          [
            98.55672521006231,
            8.361454376771508
          ]
        ]
      },
      "properties": {
        "id": "T_105",
        "row": 105,
        "nsm_water_m": 0.0,
        "epr_water_m_yr": 0.0,
        "mangrove_advance_m": 0.0,
        "classification": "Stable"
      }
    },
    {
      "type": "Feature",
      "geometry": {
        "type": "LineString",
        "coordinates": [
          [
            98.52548242880324,
            8.360965882674344
          ],
          [
            98.55672572095942,
            8.361002120756764
          ]
        ]
      },
      "properties": {
        "id": "T_110",
        "row": 110,
        "nsm_water_m": 0.0,
        "epr_water_m_yr": 0.0,
        "mangrove_advance_m": 0.0,
        "classification": "Stable"
      }
    },
    {
      "type": "Feature",
      "geometry": {
        "type": "LineString",
        "coordinates": [
          [
            98.5254829756761,
            8.360513628636415
          ],
          [
            98.55672623182792,
            8.360549864731677
          ]
        ]
      },
      "properties": {
        "id": "T_115",
        "row": 115,
        "nsm_water_m": 0.0,
        "epr_water_m_yr": 0.0,
        "mangrove_advance_m": 0.0,
        "classification": "Stable"
      }
    },
    {
      "type": "Feature",
      "geometry": {
        "type": "LineString",
        "coordinates": [
          [
            98.52548352251833,
            8.360061374588136
          ],
          [
            98.55672674266782,
            8.360097608696242
          ]
        ]
      },
      "properties": {
        "id": "T_120",
        "row": 120,
        "nsm_water_m": 0.0,
        "epr_water_m_yr": 0.0,
        "mangrove_advance_m": 0.0,
        "classification": "Stable"
      }
    },
    {
      "type": "Feature",
      "geometry": {
        "type": "LineString",
        "coordinates": [
          [
            98.52548406932992,
            8.359609120529505
          ],
          [
            98.5567272534791,
            8.359645352650457
          ]
        ]
      },
      "properties": {
        "id": "T_125",
        "row": 125,
        "nsm_water_m": 0.0,
        "epr_water_m_yr": 0.0,
        "mangrove_advance_m": 0.0,
        "classification": "Stable"
      }
    },
    {
      "type": "Feature",
      "geometry": {
        "type": "LineString",
        "coordinates": [
          [
            98.52548461611087,
            8.359156866460527
          ],
          [
            98.55672776426175,
            8.35919309659433
          ]
        ]
      },
      "properties": {
        "id": "T_130",
        "row": 130,
        "nsm_water_m": 0.0,
        "epr_water_m_yr": 0.0,
        "mangrove_advance_m": -10.0,
        "classification": "Stable"
      }
    },
    {
      "type": "Feature",
      "geometry": {
        "type": "LineString",
        "coordinates": [
          [
            98.5254851628612,
            8.3587046123812
          ],
          [
            98.5567282750158,
            8.358740840527862
          ]
        ]
      },
      "properties": {
        "id": "T_135",
        "row": 135,
        "nsm_water_m": 0.0,
        "epr_water_m_yr": 0.0,
        "mangrove_advance_m": 0.0,
        "classification": "Stable"
      }
    },
    {
      "type": "Feature",
      "geometry": {
        "type": "LineString",
        "coordinates": [
          [
            98.5254857095809,
            8.35825235829152
          ],
          [
            98.55672878574123,
            8.358288584451044
          ]
        ]
      },
      "properties": {
        "id": "T_140",
        "row": 140,
        "nsm_water_m": 0.0,
        "epr_water_m_yr": 0.0,
        "mangrove_advance_m": 0.0,
        "classification": "Stable"
      }
    },
    {
      "type": "Feature",
      "geometry": {
        "type": "LineString",
        "coordinates": [
          [
            98.52548625626999,
            8.357800104191497
          ],
          [
            98.55672929643805,
            8.357836328363886
          ]
        ]
      },
      "properties": {
        "id": "T_145",
        "row": 145,
        "nsm_water_m": 0.0,
        "epr_water_m_yr": 0.0,
        "mangrove_advance_m": 0.0,
        "classification": "Stable"
      }
    },
    {
      "type": "Feature",
      "geometry": {
        "type": "LineString",
        "coordinates": [
          [
            98.52548680292841,
            8.357347850081124
          ],
          [
            98.55672980710625,
            8.357384072266388
          ]
        ]
      },
      "properties": {
        "id": "T_150",
        "row": 150,
        "nsm_water_m": 0.0,
        "epr_water_m_yr": 0.0,
        "mangrove_advance_m": 0.0,
        "classification": "Stable"
      }
    },
    {
      "type": "Feature",
      "geometry": {
        "type": "LineString",
        "coordinates": [
          [
            98.52548734955622,
            8.35689559596041
          ],
          [
            98.55673031774585,
            8.356931816158545
          ]
        ]
      },
      "properties": {
        "id": "T_155",
        "row": 155,
        "nsm_water_m": 0.0,
        "epr_water_m_yr": 0.0,
        "mangrove_advance_m": 0.0,
        "classification": "Stable"
      }
    },
    {
      "type": "Feature",
      "geometry": {
        "type": "LineString",
        "coordinates": [
          [
            98.5254878961534,
            8.356443341829346
          ],
          [
            98.55673082835682,
            8.35647956004036
          ]
        ]
      },
      "properties": {
        "id": "T_160",
        "row": 160,
        "nsm_water_m": 0.0,
        "epr_water_m_yr": 0.0,
        "mangrove_advance_m": 0.0,
        "classification": "Stable"
      }
    },
    {
      "type": "Feature",
      "geometry": {
        "type": "LineString",
        "coordinates": [
          [
            98.52548844271993,
            8.35599108768794
          ],
          [
            98.55673133893917,
            8.356027303911835
          ]
        ]
      },
      "properties": {
        "id": "T_165",
        "row": 165,
        "nsm_water_m": 0.0,
        "epr_water_m_yr": 0.0,
        "mangrove_advance_m": 0.0,
        "classification": "Stable"
      }
    },
    {
      "type": "Feature",
      "geometry": {
        "type": "LineString",
        "coordinates": [
          [
            98.52548898925585,
            8.355538833536185
          ],
          [
            98.55673184949292,
            8.355575047772968
          ]
        ]
      },
      "properties": {
        "id": "T_170",
        "row": 170,
        "nsm_water_m": 0.0,
        "epr_water_m_yr": 0.0,
        "mangrove_advance_m": 0.0,
        "classification": "Stable"
      }
    },
    {
      "type": "Feature",
      "geometry": {
        "type": "LineString",
        "coordinates": [
          [
            98.52548953576112,
            8.355086579374085
          ],
          [
            98.55673236001806,
            8.35512279162376
          ]
        ]
      },
      "properties": {
        "id": "T_175",
        "row": 175,
        "nsm_water_m": 0.0,
        "epr_water_m_yr": 0.0,
        "mangrove_advance_m": 0.0,
        "classification": "Stable"
      }
    },
    {
      "type": "Feature",
      "geometry": {
        "type": "LineString",
        "coordinates": [
          [
            98.52549008223579,
            8.354634325201644
          ],
          [
            98.55673287051458,
            8.354670535464216
          ]
        ]
      },
      "properties": {
        "id": "T_180",
        "row": 180,
        "nsm_water_m": 0.0,
        "epr_water_m_yr": 0.0,
        "mangrove_advance_m": -10.0,
        "classification": "Stable"
      }
    },
    {
      "type": "Feature",
      "geometry": {
        "type": "LineString",
        "coordinates": [
          [
            98.52549062867982,
            8.354182071018858
          ],
          [
            98.55673338098248,
            8.35421827929433
          ]
        ]
      },
      "properties": {
        "id": "T_185",
        "row": 185,
        "nsm_water_m": 0.0,
        "epr_water_m_yr": 0.0,
        "mangrove_advance_m": 0.0,
        "classification": "Stable"
      }
    },
    {
      "type": "Feature",
      "geometry": {
        "type": "LineString",
        "coordinates": [
          [
            98.52549117509321,
            8.353729816825728
          ],
          [
            98.55673389142179,
            8.353766023114106
          ]
        ]
      },
      "properties": {
        "id": "T_190",
        "row": 190,
        "nsm_water_m": 0.0,
        "epr_water_m_yr": 0.0,
        "mangrove_advance_m": -10.0,
        "classification": "Stable"
      }
    },
    {
      "type": "Feature",
      "geometry": {
        "type": "LineString",
        "coordinates": [
          [
            98.52549172147597,
            8.353277562622264
          ],
          [
            98.55673440183246,
            8.353313766923549
          ]
        ]
      },
      "properties": {
        "id": "T_195",
        "row": 195,
        "nsm_water_m": 0.0,
        "epr_water_m_yr": 0.0,
        "mangrove_advance_m": 0.0,
        "classification": "Stable"
      }
    },
    {
      "type": "Feature",
      "geometry": {
        "type": "LineString",
        "coordinates": [
          [
            98.52549226782811,
            8.352825308408448
          ],
          [
            98.55673491221454,
            8.352861510722649
          ]
        ]
      },
      "properties": {
        "id": "T_200",
        "row": 200,
        "nsm_water_m": 0.0,
        "epr_water_m_yr": 0.0,
        "mangrove_advance_m": 0.0,
        "classification": "Stable"
      }
    },
    {
      "type": "Feature",
      "geometry": {
        "type": "LineString",
        "coordinates": [
          [
            98.52549281414963,
            8.352373054184294
          ],
          [
            98.556735422568,
            8.352409254511414
          ]
        ]
      },
      "properties": {
        "id": "T_205",
        "row": 205,
        "nsm_water_m": 0.0,
        "epr_water_m_yr": 0.0,
        "mangrove_advance_m": 0.0,
        "classification": "Stable"
      }
    },
    {
      "type": "Feature",
      "geometry": {
        "type": "LineString",
        "coordinates": [
          [
            98.5254933604405,
            8.3519207999498
          ],
          [
            98.55673593289283,
            8.351956998289845
          ]
        ]
      },
      "properties": {
        "id": "T_210",
        "row": 210,
        "nsm_water_m": 0.0,
        "epr_water_m_yr": 0.0,
        "mangrove_advance_m": 0.0,
        "classification": "Stable"
      }
    },
    {
      "type": "Feature",
      "geometry": {
        "type": "LineString",
        "coordinates": [
          [
            98.52549390670076,
            8.351468545704964
          ],
          [
            98.55673644318905,
            8.351504742057935
          ]
        ]
      },
      "properties": {
        "id": "T_215",
        "row": 215,
        "nsm_water_m": 0.0,
        "epr_water_m_yr": 0.0,
        "mangrove_advance_m": 0.0,
        "classification": "Stable"
      }
    },
    {
      "type": "Feature",
      "geometry": {
        "type": "LineString",
        "coordinates": [
          [
            98.52549445293037,
            8.351016291449794
          ],
          [
            98.55673695345668,
            8.351052485815693
          ]
        ]
      },
      "properties": {
        "id": "T_220",
        "row": 220,
        "nsm_water_m": 0.0,
        "epr_water_m_yr": 0.0,
        "mangrove_advance_m": 0.0,
        "classification": "Stable"
      }
    },
    {
      "type": "Feature",
      "geometry": {
        "type": "LineString",
        "coordinates": [
          [
            98.52549499912936,
            8.350564037184279
          ],
          [
            98.55673746369568,
            8.350600229563117
          ]
        ]
      },
      "properties": {
        "id": "T_225",
        "row": 225,
        "nsm_water_m": 0.0,
        "epr_water_m_yr": 0.0,
        "mangrove_advance_m": 0.0,
        "classification": "Stable"
      }
    },
    {
      "type": "Feature",
      "geometry": {
        "type": "LineString",
        "coordinates": [
          [
            98.52549554529773,
            8.350111782908428
          ],
          [
            98.55673797390608,
            8.350147973300206
          ]
        ]
      },
      "properties": {
        "id": "T_230",
        "row": 230,
        "nsm_water_m": 0.0,
        "epr_water_m_yr": 0.0,
        "mangrove_advance_m": 40.0,
        "classification": "Stable"
      }
    },
    {
      "type": "Feature",
      "geometry": {
        "type": "LineString",
        "coordinates": [
          [
            98.52549609143547,
            8.349659528622242
          ],
          [
            98.55673848408787,
            8.349695717026965
          ]
        ]
      },
      "properties": {
        "id": "T_235",
        "row": 235,
        "nsm_water_m": 0.0,
        "epr_water_m_yr": 0.0,
        "mangrove_advance_m": 0.0,
        "classification": "Stable"
      }
    },
    {
      "type": "Feature",
      "geometry": {
        "type": "LineString",
        "coordinates": [
          [
            98.52549663754257,
            8.349207274325718
          ],
          [
            98.55673899424104,
            8.349243460743388
          ]
        ]
      },
      "properties": {
        "id": "T_240",
        "row": 240,
        "nsm_water_m": 0.0,
        "epr_water_m_yr": 0.0,
        "mangrove_advance_m": 10.0,
        "classification": "Stable"
      }
    },
    {
      "type": "Feature",
      "geometry": {
        "type": "LineString",
        "coordinates": [
          [
            98.52549718361905,
            8.348755020018853
          ],
          [
            98.55673950436561,
            8.348791204449478
          ]
        ]
      },
      "properties": {
        "id": "T_245",
        "row": 245,
        "nsm_water_m": 0.0,
        "epr_water_m_yr": 0.0,
        "mangrove_advance_m": 0.0,
        "classification": "Stable"
      }
    },
    {
      "type": "Feature",
      "geometry": {
        "type": "LineString",
        "coordinates": [
          [
            98.52549772966492,
            8.348302765701655
          ],
          [
            98.55674001446157,
            8.348338948145237
          ]
        ]
      },
      "properties": {
        "id": "T_250",
        "row": 250,
        "nsm_water_m": 0.0,
        "epr_water_m_yr": 0.0,
        "mangrove_advance_m": 10.0,
        "classification": "Stable"
      }
    },
    {
      "type": "Feature",
      "geometry": {
        "type": "LineString",
        "coordinates": [
          [
            98.52549827568014,
            8.34785051137412
          ],
          [
            98.55674052452889,
            8.347886691830665
          ]
        ]
      },
      "properties": {
        "id": "T_255",
        "row": 255,
        "nsm_water_m": 0.0,
        "epr_water_m_yr": 0.0,
        "mangrove_advance_m": 0.0,
        "classification": "Stable"
      }
    },
    {
      "type": "Feature",
      "geometry": {
        "type": "LineString",
        "coordinates": [
          [
            98.52549882166474,
            8.34739825703625
          ],
          [
            98.55674103456764,
            8.347434435505761
          ]
        ]
      },
      "properties": {
        "id": "T_260",
        "row": 260,
        "nsm_water_m": 0.0,
        "epr_water_m_yr": 0.0,
        "mangrove_advance_m": 0.0,
        "classification": "Stable"
      }
    },
    {
      "type": "Feature",
      "geometry": {
        "type": "LineString",
        "coordinates": [
          [
            98.52549936761872,
            8.346946002688044
          ],
          [
            98.55674154457776,
            8.346982179170526
          ]
        ]
      },
      "properties": {
        "id": "T_265",
        "row": 265,
        "nsm_water_m": 0.0,
        "epr_water_m_yr": 0.0,
        "mangrove_advance_m": 0.0,
        "classification": "Stable"
      }
    },
    {
      "type": "Feature",
      "geometry": {
        "type": "LineString",
        "coordinates": [
          [
            98.52549991354206,
            8.346493748329507
          ],
          [
            98.55674205455925,
            8.346529922824965
          ]
        ]
      },
      "properties": {
        "id": "T_270",
        "row": 270,
        "nsm_water_m": 0.0,
        "epr_water_m_yr": 0.0,
        "mangrove_advance_m": 10.0,
        "classification": "Stable"
      }
    },
    {
      "type": "Feature",
      "geometry": {
        "type": "LineString",
        "coordinates": [
          [
            98.52550045943478,
            8.346041493960634
          ],
          [
            98.55674256451215,
            8.346077666469073
          ]
        ]
      },
      "properties": {
        "id": "T_275",
        "row": 275,
        "nsm_water_m": 0.0,
        "epr_water_m_yr": 0.0,
        "mangrove_advance_m": 10.0,
        "classification": "Stable"
      }
    },
    {
      "type": "Feature",
      "geometry": {
        "type": "LineString",
        "coordinates": [
          [
            98.52550100529689,
            8.34558923958143
          ],
          [
            98.55674307443644,
            8.345625410102853
          ]
        ]
      },
      "properties": {
        "id": "T_280",
        "row": 280,
        "nsm_water_m": 0.0,
        "epr_water_m_yr": 0.0,
        "mangrove_advance_m": 0.0,
        "classification": "Stable"
      }
    },
    {
      "type": "Feature",
      "geometry": {
        "type": "LineString",
        "coordinates": [
          [
            98.52550155112834,
            8.345136985191896
          ],
          [
            98.55674358433212,
            8.345173153726305
          ]
        ]
      },
      "properties": {
        "id": "T_285",
        "row": 285,
        "nsm_water_m": 0.0,
        "epr_water_m_yr": 0.0,
        "mangrove_advance_m": 10.0,
        "classification": "Stable"
      }
    },
    {
      "type": "Feature",
      "geometry": {
        "type": "LineString",
        "coordinates": [
          [
            98.52550209692919,
            8.344684730792022
          ],
          [
            98.55674409419919,
            8.344720897339426
          ]
        ]
      },
      "properties": {
        "id": "T_290",
        "row": 290,
        "nsm_water_m": 0.0,
        "epr_water_m_yr": 0.0,
        "mangrove_advance_m": 10.0,
        "classification": "Stable"
      }
    },
    {
      "type": "Feature",
      "geometry": {
        "type": "LineString",
        "coordinates": [
          [
            98.52550264269941,
            8.344232476381825
          ],
          [
            98.55674460403765,
            8.344268640942223
          ]
        ]
      },
      "properties": {
        "id": "T_295",
        "row": 295,
        "nsm_water_m": 0.0,
        "epr_water_m_yr": 0.0,
        "mangrove_advance_m": 0.0,
        "classification": "Stable"
      }
    },
    {
      "type": "Feature",
      "geometry": {
        "type": "LineString",
        "coordinates": [
          [
            98.52550318843899,
            8.343780221961294
          ],
          [
            98.5567451138475,
            8.343816384534694
          ]
        ]
      },
      "properties": {
        "id": "T_300",
        "row": 300,
        "nsm_water_m": 0.0,
        "epr_water_m_yr": 0.0,
        "mangrove_advance_m": 10.0,
        "classification": "Stable"
      }
    },
    {
      "type": "Feature",
      "geometry": {
        "type": "LineString",
        "coordinates": [
          [
            98.52550373414796,
            8.34332796753043
          ],
          [
            98.55674562362874,
            8.34336412811684
          ]
        ]
      },
      "properties": {
        "id": "T_305",
        "row": 305,
        "nsm_water_m": 0.0,
        "epr_water_m_yr": 0.0,
        "mangrove_advance_m": 0.0,
        "classification": "Stable"
      }
    },
    {
      "type": "Feature",
      "geometry": {
        "type": "LineString",
        "coordinates": [
          [
            98.5255042798263,
            8.342875713089239
          ],
          [
            98.55674613338138,
            8.342911871688656
          ]
        ]
      },
      "properties": {
        "id": "T_310",
        "row": 310,
        "nsm_water_m": 0.0,
        "epr_water_m_yr": 0.0,
        "mangrove_advance_m": 10.0,
        "classification": "Stable"
      }
    },
    {
      "type": "Feature",
      "geometry": {
        "type": "LineString",
        "coordinates": [
          [
            98.52550482547402,
            8.342423458637718
          ],
          [
            98.55674664310541,
            8.34245961525015
          ]
        ]
      },
      "properties": {
        "id": "T_315",
        "row": 315,
        "nsm_water_m": 0.0,
        "epr_water_m_yr": 0.0,
        "mangrove_advance_m": 0.0,
        "classification": "Stable"
      }
    },
    {
      "type": "Feature",
      "geometry": {
        "type": "LineString",
        "coordinates": [
          [
            98.5255053710911,
            8.341971204175868
          ],
          [
            98.55674715280082,
            8.34200735880132
          ]
        ]
      },
      "properties": {
        "id": "T_320",
        "row": 320,
        "nsm_water_m": 0.0,
        "epr_water_m_yr": 0.0,
        "mangrove_advance_m": 10.0,
        "classification": "Stable"
      }
    },
    {
      "type": "Feature",
      "geometry": {
        "type": "LineString",
        "coordinates": [
          [
            98.52550591667756,
            8.341518949703692
          ],
          [
            98.55674766246761,
            8.341555102342166
          ]
        ]
      },
      "properties": {
        "id": "T_325",
        "row": 325,
        "nsm_water_m": 0.0,
        "epr_water_m_yr": 0.0,
        "mangrove_advance_m": 10.0,
        "classification": "Stable"
      }
    },
    {
      "type": "Feature",
      "geometry": {
        "type": "LineString",
        "coordinates": [
          [
            98.52550646223341,
            8.341066695221189
          ],
          [
            98.55674817210581,
            8.34110284587269
          ]
        ]
      },
      "properties": {
        "id": "T_330",
        "row": 330,
        "nsm_water_m": 0.0,
        "epr_water_m_yr": 0.0,
        "mangrove_advance_m": 0.0,
        "classification": "Stable"
      }
    },
    {
      "type": "Feature",
      "geometry": {
        "type": "LineString",
        "coordinates": [
          [
            98.52550700775862,
            8.340614440728354
          ],
          [
            98.5567486817154,
            8.34065058939289
          ]
        ]
      },
      "properties": {
        "id": "T_335",
        "row": 335,
        "nsm_water_m": 0.0,
        "epr_water_m_yr": 0.0,
        "mangrove_advance_m": 10.0,
        "classification": "Stable"
      }
    },
    {
      "type": "Feature",
      "geometry": {
        "type": "LineString",
        "coordinates": [
          [
            98.5255075532532,
            8.340162186225198
          ],
          [
            98.55674919129639,
            8.340198332902768
          ]
        ]
      },
      "properties": {
        "id": "T_340",
        "row": 340,
        "nsm_water_m": 0.0,
        "epr_water_m_yr": 0.0,
        "mangrove_advance_m": 10.0,
        "classification": "Stable"
      }
    }
  ]
}