{
"type": "FeatureCollection",
"name": "phangnga_plots_combined",
"crs": { "type": "name", "properties": { "name": "urn:ogc:def:crs:OGC:1.3:CRS84" } },
"features": [
{ "type": "Feature", "properties": { "id": "ID_00373", "Name": "แปลง 40-VSD เนื้อที่ 289.11 ไร่ จังหวัด พังงา", "description": "<html xmlns:fo=\"http://www.w3.org/1999/XSL/Format\" xmlns:msxsl=\"urn:schemas-microsoft-com:xslt\">\n\n<head>\n\n<META http-equiv=\"Content-Type\" content=\"text/html\">\n\n<meta http-equiv=\"content-type\" content=\"text/html; charset=UTF-8\">\n\n</head>\n\n<body style=\"margin:0px 0px 0px 0px;overflow:auto;background:#FFFFFF;\">\n\n<table style=\"font-family:Arial,Verdana,Times;font-size:12px;text-align:left;width:100%;border-collapse:collapse;padding:3px 3px 3px 3px\">\n\n<tr style=\"text-align:center;font-weight:bold;background:#9CBCE2\">\n\n<td>แปลง 40-VSD เนื้อที่ 289.11 ไร่ จังหวัด พังงา</td>\n\n</tr>\n\n<tr>\n\n<td>\n\n<table style=\"font-family:Arial,Verdana,Times;font-size:12px;text-align:left;width:100%;border-spacing:0px; padding:3px 3px 3px 3px\">\n\n<tr>\n\n<td>FID</td>\n\n<td>373</td>\n\n</tr>\n\n<tr bgcolor=\"#D4E4F3\">\n\n<td>Name</td>\n\n<td>แปลง 40-VSD เนื้อที่ 289.11 ไร่ จังหวัด พังงา</td>\n\n</tr>\n\n<tr>\n\n<td>Code_Name</td>\n\n<td>40-VSD</td>\n\n</tr>\n\n<tr bgcolor=\"#D4E4F3\">\n\n<td>Moo</td>\n\n<td>3</td>\n\n</tr>\n\n<tr>\n\n<td>Mooban</td>\n\n<td>เกาะไม้ไผ่</td>\n\n</tr>\n\n<tr bgcolor=\"#D4E4F3\">\n\n<td>Tambon</td>\n\n<td>เกาะปันหยี</td>\n\n</tr>\n\n<tr>\n\n<td>Amphor</td>\n\n<td>เมือง</td>\n\n</tr>\n\n<tr bgcolor=\"#D4E4F3\">\n\n<td>Province</td>\n\n<td>พังงา</td>\n\n</tr>\n\n<tr>\n\n<td>Type</td>\n\n<td>แปลงปลูกเสริมและปรับปรุงสภาพป่าชายเลน</td>\n\n</tr>\n\n<tr bgcolor=\"#D4E4F3\">\n\n<td>Route</td>\n\n<td><a target=\"_blank\" href=\"https://goo.gl/maps/QL7pSZMnJdCVMQw16\">https://goo.gl/maps/QL7pSZMnJdCVMQw16</a></td>\n\n</tr>\n\n<tr>\n\n<td>Company</td>\n\n<td>วิสุทธิ</td>\n\n</tr>\n\n<tr bgcolor=\"#D4E4F3\">\n\n<td>Area</td>\n\n<td>462923.918</td>\n\n</tr>\n\n<tr>\n\n<td>Data</td>\n\n<td>ยืนยันกรม</td>\n\n</tr>\n\n<tr bgcolor=\"#D4E4F3\">\n\n<td>rai</td>\n\n<td>289.11</td>\n\n</tr>\n\n<tr>\n\n<td>rai_qgis</td>\n\n<td>289.33</td>\n\n</tr>\n\n<tr bgcolor=\"#D4E4F3\">\n\n<td>rai_arcgis</td>\n\n<td>0</td>\n\n</tr>\n\n</table>\n\n</td>\n\n</tr>\n\n</table>\n\n</body>\n\n</html>", "timestamp": null, "begin": null, "end": null, "altitudeMode": null, "tessellate": -1, "extrude": 0, "visibility": -1, "drawOrder": null, "icon": null, "snippet": "", "plot_id": "40-vsd", "label": "แปลง 40-VSD (289.11 ไร่)", "area_rai": 289.11, "pdd_rai": 277.33, "province": "พังงา", "subdistrict": "เกาะปันหยี", "district": "เมือง", "village": "เกาะไม้ไผ่", "land_type": "แปลงปลูกเสริมและปรับปรุงสภาพป่าชายเลน" }, "geometry": { "type": "MultiPolygon", "coordinates": [ [ [ [ 98.549871406040623, 8.350565351210035 ], [ 98.550213669125597, 8.353062195663824 ], [ 98.549839257076087, 8.354843660006965 ], [ 98.547156360877409, 8.357997348598815 ], [ 98.543430844657777, 8.359521693171644 ], [ 98.544078693776768, 8.356935536146125 ], [ 98.544834073933444, 8.35559772805277 ], [ 98.546517859311791, 8.352506228479683 ], [ 98.548254986178733, 8.350391654351428 ], [ 98.549871406040623, 8.350565351210035 ] ] ], [ [ [ 98.552550499006372, 8.350685973678765 ], [ 98.552149256582979, 8.352114651070339 ], [ 98.550703578407479, 8.35352405329246 ], [ 98.550733152612963, 8.351488933367648 ], [ 98.551951315800636, 8.350477258119042 ], [ 98.552550499006372, 8.350685973678765 ] ] ], [ [ [ 98.552302000137274, 8.345593282903735 ], [ 98.551345787877892, 8.347871575013242 ], [ 98.549819213885655, 8.348557273899132 ], [ 98.5501569380923, 8.347083301253406 ], [ 98.55071228654289, 8.345908063606316 ], [ 98.551621922014135, 8.344651820425213 ], [ 98.552302000137274, 8.345593282903735 ] ] ] ] } },
{ "type": "Feature", "properties": { "id": "ID_00374", "Name": "แปลง 41-VSD เนื้อที่ 181.5 ไร่ จังหวัด พังงา", "description": "<html xmlns:fo=\"http://www.w3.org/1999/XSL/Format\" xmlns:msxsl=\"urn:schemas-microsoft-com:xslt\">\n\n<head>\n\n<META http-equiv=\"Content-Type\" content=\"text/html\">\n\n<meta http-equiv=\"content-type\" content=\"text/html; charset=UTF-8\">\n\n</head>\n\n<body style=\"margin:0px 0px 0px 0px;overflow:auto;background:#FFFFFF;\">\n\n<table style=\"font-family:Arial,Verdana,Times;font-size:12px;text-align:left;width:100%;border-collapse:collapse;padding:3px 3px 3px 3px\">\n\n<tr style=\"text-align:center;font-weight:bold;background:#9CBCE2\">\n\n<td>แปลง 41-VSD เนื้อที่ 181.5 ไร่ จังหวัด พังงา</td>\n\n</tr>\n\n<tr>\n\n<td>\n\n<table style=\"font-family:Arial,Verdana,Times;font-size:12px;text-align:left;width:100%;border-spacing:0px; padding:3px 3px 3px 3px\">\n\n<tr>\n\n<td>FID</td>\n\n<td>374</td>\n\n</tr>\n\n<tr bgcolor=\"#D4E4F3\">\n\n<td>Name</td>\n\n<td>แปลง 41-VSD เนื้อที่ 181.5 ไร่ จังหวัด พังงา</td>\n\n</tr>\n\n<tr>\n\n<td>Code_Name</td>\n\n<td>41-VSD</td>\n\n</tr>\n\n<tr bgcolor=\"#D4E4F3\">\n\n<td>Moo</td>\n\n<td>3</td>\n\n</tr>\n\n<tr>\n\n<td>Mooban</td>\n\n<td>เกาะไม้ไผ่</td>\n\n</tr>\n\n<tr bgcolor=\"#D4E4F3\">\n\n<td>Tambon</td>\n\n<td>เกาะปันหยี</td>\n\n</tr>\n\n<tr>\n\n<td>Amphor</td>\n\n<td>เมือง</td>\n\n</tr>\n\n<tr bgcolor=\"#D4E4F3\">\n\n<td>Province</td>\n\n<td>พังงา</td>\n\n</tr>\n\n<tr>\n\n<td>Type</td>\n\n<td>แปลงปลูกเสริมและปรับปรุงสภาพป่าชายเลน</td>\n\n</tr>\n\n<tr bgcolor=\"#D4E4F3\">\n\n<td>Route</td>\n\n<td><a target=\"_blank\" href=\"https://goo.gl/maps/ysbfMNSmngNvaFUp7\">https://goo.gl/maps/ysbfMNSmngNvaFUp7</a></td>\n\n</tr>\n\n<tr>\n\n<td>Company</td>\n\n<td>วิสุทธิ</td>\n\n</tr>\n\n<tr bgcolor=\"#D4E4F3\">\n\n<td>Area</td>\n\n<td>290610.25</td>\n\n</tr>\n\n<tr>\n\n<td>Data</td>\n\n<td>ยืนยันกรม</td>\n\n</tr>\n\n<tr bgcolor=\"#D4E4F3\">\n\n<td>rai</td>\n\n<td>181.5</td>\n\n</tr>\n\n<tr>\n\n<td>rai_qgis</td>\n\n<td>181.63</td>\n\n</tr>\n\n<tr bgcolor=\"#D4E4F3\">\n\n<td>rai_arcgis</td>\n\n<td>0</td>\n\n</tr>\n\n</table>\n\n</td>\n\n</tr>\n\n</table>\n\n</body>\n\n</html>", "timestamp": null, "begin": null, "end": null, "altitudeMode": null, "tessellate": -1, "extrude": 0, "visibility": -1, "drawOrder": null, "icon": null, "snippet": "", "plot_id": "41-vsd", "label": "แปลง 41-VSD (181.50 ไร่)", "area_rai": 181.5, "pdd_rai": 178.92, "province": "พังงา", "subdistrict": "เกาะปันหยี", "district": "เมือง", "village": "เกาะไม้ไผ่", "land_type": "แปลงปลูกเสริมและปรับปรุงสภาพป่าชายเลน" }, "geometry": { "type": "MultiPolygon", "coordinates": [ [ [ [ 98.537728694123999, 8.358203531667698 ], [ 98.539832294724704, 8.36118182548091 ], [ 98.53877721010025, 8.362483092320929 ], [ 98.538251220017841, 8.361813140564037 ], [ 98.536999369125624, 8.360527272815432 ], [ 98.535283674901734, 8.359792607642762 ], [ 98.534539664873705, 8.359167621088886 ], [ 98.534431664389842, 8.358335343501324 ], [ 98.53470555921426, 8.357132666639302 ], [ 98.535443918801903, 8.354854166786426 ], [ 98.536453174874168, 8.353896567772438 ], [ 98.537099256825286, 8.352839045985206 ], [ 98.538052926701255, 8.352803978720713 ], [ 98.537728694123999, 8.358203531667698 ] ] ] ] } },
{ "type": "Feature", "properties": { "id": "ID_00367", "Name": "แปลง 42-VSD เนื้อที่ 228.88 ไร่ จังหวัด พังงา", "description": "<html xmlns:fo=\"http://www.w3.org/1999/XSL/Format\" xmlns:msxsl=\"urn:schemas-microsoft-com:xslt\">\n\n<head>\n\n<META http-equiv=\"Content-Type\" content=\"text/html\">\n\n<meta http-equiv=\"content-type\" content=\"text/html; charset=UTF-8\">\n\n</head>\n\n<body style=\"margin:0px 0px 0px 0px;overflow:auto;background:#FFFFFF;\">\n\n<table style=\"font-family:Arial,Verdana,Times;font-size:12px;text-align:left;width:100%;border-collapse:collapse;padding:3px 3px 3px 3px\">\n\n<tr style=\"text-align:center;font-weight:bold;background:#9CBCE2\">\n\n<td>แปลง 42-VSD เนื้อที่ 228.88 ไร่ จังหวัด พังงา</td>\n\n</tr>\n\n<tr>\n\n<td>\n\n<table style=\"font-family:Arial,Verdana,Times;font-size:12px;text-align:left;width:100%;border-spacing:0px; padding:3px 3px 3px 3px\">\n\n<tr>\n\n<td>FID</td>\n\n<td>367</td>\n\n</tr>\n\n<tr bgcolor=\"#D4E4F3\">\n\n<td>Name</td>\n\n<td>แปลง 42-VSD เนื้อที่ 228.88 ไร่ จังหวัด พังงา</td>\n\n</tr>\n\n<tr>\n\n<td>Code_Name</td>\n\n<td>42-VSD</td>\n\n</tr>\n\n<tr bgcolor=\"#D4E4F3\">\n\n<td>Moo</td>\n\n<td>3</td>\n\n</tr>\n\n<tr>\n\n<td>Mooban</td>\n\n<td>เกาะไม้ไผ่</td>\n\n</tr>\n\n<tr bgcolor=\"#D4E4F3\">\n\n<td>Tambon</td>\n\n<td>เกาะปันหยี</td>\n\n</tr>\n\n<tr>\n\n<td>Amphor</td>\n\n<td>เมือง</td>\n\n</tr>\n\n<tr bgcolor=\"#D4E4F3\">\n\n<td>Province</td>\n\n<td>พังงา</td>\n\n</tr>\n\n<tr>\n\n<td>Type</td>\n\n<td>แปลงปลูกเสริมและปรับปรุงสภาพป่าชายเลน</td>\n\n</tr>\n\n<tr bgcolor=\"#D4E4F3\">\n\n<td>Route</td>\n\n<td><a target=\"_blank\" href=\"https://goo.gl/maps/XTkdFdVokiGF7xjh8\">https://goo.gl/maps/XTkdFdVokiGF7xjh8</a></td>\n\n</tr>\n\n<tr>\n\n<td>Company</td>\n\n<td>วิสุทธิ</td>\n\n</tr>\n\n<tr bgcolor=\"#D4E4F3\">\n\n<td>Area</td>\n\n<td>366469.637</td>\n\n</tr>\n\n<tr>\n\n<td>Data</td>\n\n<td>ยืนยันกรม</td>\n\n</tr>\n\n<tr bgcolor=\"#D4E4F3\">\n\n<td>rai</td>\n\n<td>228.88</td>\n\n</tr>\n\n<tr>\n\n<td>rai_qgis</td>\n\n<td>229.04</td>\n\n</tr>\n\n<tr bgcolor=\"#D4E4F3\">\n\n<td>rai_arcgis</td>\n\n<td>0</td>\n\n</tr>\n\n</table>\n\n</td>\n\n</tr>\n\n</table>\n\n</body>\n\n</html>", "timestamp": null, "begin": null, "end": null, "altitudeMode": null, "tessellate": -1, "extrude": 0, "visibility": -1, "drawOrder": null, "icon": null, "snippet": "", "plot_id": "42-vsd", "label": "แปลง 42-VSD (228.88 ไร่)", "area_rai": 228.88, "pdd_rai": 223.01, "province": "พังงา", "subdistrict": "เกาะปันหยี", "district": "เมือง", "village": "เกาะไม้ไผ่", "land_type": "แปลงปลูกเสริมและปรับปรุงสภาพป่าชายเลน" }, "geometry": { "type": "MultiPolygon", "coordinates": [ [ [ [ 98.537524598381594, 8.361839427747441 ], [ 98.536443785952031, 8.361847207782489 ], [ 98.535917586327614, 8.361358154655136 ], [ 98.53520026278197, 8.36120354590696 ], [ 98.534164456024897, 8.361555087297518 ], [ 98.530704836059385, 8.360917841185483 ], [ 98.531034697493325, 8.358494144888938 ], [ 98.530320346207063, 8.355861173654262 ], [ 98.529586105514397, 8.354675393254864 ], [ 98.529777751941765, 8.353906787668166 ], [ 98.530604727126502, 8.353491693886609 ], [ 98.531394919140268, 8.353456449455621 ], [ 98.532438528415426, 8.354163200571291 ], [ 98.532992133080555, 8.354507568069835 ], [ 98.534544490635767, 8.355097328179228 ], [ 98.534351919705387, 8.356652860341285 ], [ 98.533914511045921, 8.357882479992497 ], [ 98.534158133790939, 8.359230487297227 ], [ 98.535446568204634, 8.36029027987257 ], [ 98.537062294689235, 8.361079097722211 ], [ 98.537524598381594, 8.361839427747441 ] ] ] ] } }
]
}
