{
"type": "FeatureCollection",
"name": "nakhon_plots_combined",
"crs": { "type": "name", "properties": { "name": "urn:ogc:def:crs:OGC:1.3:CRS84" } },
"features": [
{ "type": "Feature", "properties": { "id": "ID_00341", "Name": "แปลง 22-VSD เนื้อที่ 300.64 ไร่ จังหวัด นครศรีธรรมราช", "description": "<html xmlns:fo=\"http://www.w3.org/1999/XSL/Format\" xmlns:msxsl=\"urn:schemas-microsoft-com:xslt\">\n\n<head>\n\n<META http-equiv=\"Content-Type\" content=\"text/html\">\n\n<meta http-equiv=\"content-type\" content=\"text/html; charset=UTF-8\">\n\n</head>\n\n<body style=\"margin:0px 0px 0px 0px;overflow:auto;background:#FFFFFF;\">\n\n<table style=\"font-family:Arial,Verdana,Times;font-size:12px;text-align:left;width:100%;border-collapse:collapse;padding:3px 3px 3px 3px\">\n\n<tr style=\"text-align:center;font-weight:bold;background:#9CBCE2\">\n\n<td>แปลง 22-VSD เนื้อที่ 300.64 ไร่ จังหวัด นครศรีธรรมราช</td>\n\n</tr>\n\n<tr>\n\n<td>\n\n<table style=\"font-family:Arial,Verdana,Times;font-size:12px;text-align:left;width:100%;border-spacing:0px; padding:3px 3px 3px 3px\">\n\n<tr>\n\n<td>FID</td>\n\n<td>341</td>\n\n</tr>\n\n<tr bgcolor=\"#D4E4F3\">\n\n<td>Name</td>\n\n<td>แปลง 22-VSD เนื้อที่ 300.64 ไร่ จังหวัด นครศรีธรรมราช</td>\n\n</tr>\n\n<tr>\n\n<td>Code_Name</td>\n\n<td>22-VSD</td>\n\n</tr>\n\n<tr bgcolor=\"#D4E4F3\">\n\n<td>Moo</td>\n\n<td>14</td>\n\n</tr>\n\n<tr>\n\n<td>Mooban</td>\n\n<td>ท่าศาลา</td>\n\n</tr>\n\n<tr bgcolor=\"#D4E4F3\">\n\n<td>Tambon</td>\n\n<td>ท่าศาลา</td>\n\n</tr>\n\n<tr>\n\n<td>Amphor</td>\n\n<td>เมือง</td>\n\n</tr>\n\n<tr bgcolor=\"#D4E4F3\">\n\n<td>Province</td>\n\n<td>นครศรีธรรมราช</td>\n\n</tr>\n\n<tr>\n\n<td>Type</td>\n\n<td>พื้นที่เลนงอก</td>\n\n</tr>\n\n<tr bgcolor=\"#D4E4F3\">\n\n<td>Route</td>\n\n<td><a target=\"_blank\" href=\"https://goo.gl/maps/jYcttXQzE7hGzTeHA\">https://goo.gl/maps/jYcttXQzE7hGzTeHA</a></td>\n\n</tr>\n\n<tr>\n\n<td>Company</td>\n\n<td>วิสุทธิ</td>\n\n</tr>\n\n<tr bgcolor=\"#D4E4F3\">\n\n<td>Area</td>\n\n<td>480949.929</td>\n\n</tr>\n\n<tr>\n\n<td>Data</td>\n\n<td>ยืนยันกรม</td>\n\n</tr>\n\n<tr bgcolor=\"#D4E4F3\">\n\n<td>rai</td>\n\n<td>300.64</td>\n\n</tr>\n\n<tr>\n\n<td>rai_qgis</td>\n\n<td>300.59</td>\n\n</tr>\n\n<tr bgcolor=\"#D4E4F3\">\n\n<td>rai_arcgis</td>\n\n<td>0</td>\n\n</tr>\n\n</table>\n\n</td>\n\n</tr>\n\n</table>\n\n</body>\n\n</html>", "timestamp": null, "begin": null, "end": null, "altitudeMode": null, "tessellate": -1, "extrude": 0, "visibility": -1, "drawOrder": null, "icon": null, "snippet": "", "plot_id": "22-vsd", "label": "แปลง 22-VSD", "area_rai": 300.64, "province": "นครศรีธรรมราช", "subdistrict": "ท่าศาลา", "district": "เมือง/ท่าศาลา", "land_type": "พื้นที่เลนงอก" }, "geometry": { "type": "MultiPolygon", "coordinates": [ [ [ [ 100.002211761963295, 8.595984450621927 ], [ 100.0165123989281, 8.58405410821058 ], [ 100.015621906425906, 8.583380291167543 ], [ 100.014765918212603, 8.584293959198931 ], [ 100.001898537087897, 8.594357354008707 ], [ 99.990882810593291, 8.600373023496275 ], [ 99.991578677218286, 8.60153667715017 ], [ 100.002215336768401, 8.595989976955934 ], [ 100.002211761963295, 8.595984450621927 ] ] ], [ [ [ 99.991576423513209, 8.601537852390038 ], [ 99.991581284348854, 8.601541036889387 ], [ 99.991578677218286, 8.60153667715017 ], [ 99.991576423513209, 8.601537852390038 ] ] ] ] } },
{ "type": "Feature", "properties": { "id": "ID_00237", "Name": "แปลง 23-VSD เนื้อที่ 200.12 ไร่ จังหวัด นครศรีธรรมราช", "description": "<html xmlns:fo=\"http://www.w3.org/1999/XSL/Format\" xmlns:msxsl=\"urn:schemas-microsoft-com:xslt\">\n\n<head>\n\n<META http-equiv=\"Content-Type\" content=\"text/html\">\n\n<meta http-equiv=\"content-type\" content=\"text/html; charset=UTF-8\">\n\n</head>\n\n<body style=\"margin:0px 0px 0px 0px;overflow:auto;background:#FFFFFF;\">\n\n<table style=\"font-family:Arial,Verdana,Times;font-size:12px;text-align:left;width:100%;border-collapse:collapse;padding:3px 3px 3px 3px\">\n\n<tr style=\"text-align:center;font-weight:bold;background:#9CBCE2\">\n\n<td>แปลง 23-VSD เนื้อที่ 200.12 ไร่ จังหวัด นครศรีธรรมราช</td>\n\n</tr>\n\n<tr>\n\n<td>\n\n<table style=\"font-family:Arial,Verdana,Times;font-size:12px;text-align:left;width:100%;border-spacing:0px; padding:3px 3px 3px 3px\">\n\n<tr>\n\n<td>FID</td>\n\n<td>237</td>\n\n</tr>\n\n<tr bgcolor=\"#D4E4F3\">\n\n<td>Name</td>\n\n<td>แปลง 23-VSD เนื้อที่ 200.12 ไร่ จังหวัด นครศรีธรรมราช</td>\n\n</tr>\n\n<tr>\n\n<td>Code_Name</td>\n\n<td>23-VSD</td>\n\n</tr>\n\n<tr bgcolor=\"#D4E4F3\">\n\n<td>Moo</td>\n\n<td>14</td>\n\n</tr>\n\n<tr>\n\n<td>Mooban</td>\n\n<td>ท่าศาลา</td>\n\n</tr>\n\n<tr bgcolor=\"#D4E4F3\">\n\n<td>Tambon</td>\n\n<td>ท่าศาลา</td>\n\n</tr>\n\n<tr>\n\n<td>Amphor</td>\n\n<td>เมือง</td>\n\n</tr>\n\n<tr bgcolor=\"#D4E4F3\">\n\n<td>Province</td>\n\n<td>นครศรีธรรมราช</td>\n\n</tr>\n\n<tr>\n\n<td>Type</td>\n\n<td>พื้นที่เลนงอก</td>\n\n</tr>\n\n<tr bgcolor=\"#D4E4F3\">\n\n<td>Route</td>\n\n<td><a target=\"_blank\" href=\"https://goo.gl/maps/3Zviq95du7iEGnGb8\">https://goo.gl/maps/3Zviq95du7iEGnGb8</a></td>\n\n</tr>\n\n<tr>\n\n<td>Company</td>\n\n<td>วิสุทธิ</td>\n\n</tr>\n\n<tr bgcolor=\"#D4E4F3\">\n\n<td>Area</td>\n\n<td>320192.308</td>\n\n</tr>\n\n<tr>\n\n<td>Data</td>\n\n<td>SHP PDD</td>\n\n</tr>\n\n<tr bgcolor=\"#D4E4F3\">\n\n<td>rai</td>\n\n<td>200.12</td>\n\n</tr>\n\n<tr>\n\n<td>rai_qgis</td>\n\n<td>200.22</td>\n\n</tr>\n\n<tr bgcolor=\"#D4E4F3\">\n\n<td>rai_arcgis</td>\n\n<td>200.12</td>\n\n</tr>\n\n</table>\n\n</td>\n\n</tr>\n\n</table>\n\n</body>\n\n</html>", "timestamp": null, "begin": null, "end": null, "altitudeMode": null, "tessellate": -1, "extrude": 0, "visibility": -1, "drawOrder": null, "icon": null, "snippet": "", "plot_id": "23-vsd", "label": "แปลง 23-VSD", "area_rai": 200.12, "province": "นครศรีธรรมราช", "subdistrict": "ท่าศาลา", "district": "เมือง/ท่าศาลา", "land_type": "พื้นที่เลนงอก" }, "geometry": { "type": "MultiPolygon", "coordinates": [ [ [ [ 99.992150853781325, 8.602287022724447 ], [ 99.991581284351156, 8.601541036885086 ], [ 99.996367794636939, 8.599029343729944 ], [ 100.002215336771599, 8.595989976954591 ], [ 100.009410785480497, 8.589969519476412 ], [ 100.011024607202899, 8.588608698630006 ], [ 100.0116627760179, 8.58940289082868 ], [ 100.003082197416603, 8.596942857272509 ], [ 99.992150853781325, 8.602287022724447 ] ] ] ] } }
]
}
